[{"OBJECT_NAME":"STARLINK-3601","OBJECT_ID":"2022-017AN","EPOCH":"2026-03-09T22:52:16.494816","MEAN_MOTION":15.08840434,"ECCENTRICITY":0.00014002,"INCLINATION":53.2206,"RA_OF_ASC_NODE":327.9428,"ARG_OF_PERICENTER":88.6084,"MEAN_ANOMALY":271.5069,"EPHEMERIS_TYPE":0,"CLASSIFICATION_TYPE":"U","NORAD_CAT_ID":51804,"ELEMENT_SET_NO":999,"REV_AT_EPOCH":22419,"BSTAR":3.2557071e-5,"MEAN_MOTION_DOT":2.3e-6,"MEAN_MOTION_DDOT":0},{"OBJECT_NAME":"OBJECT M","OBJECT_ID":"2017-042M","EPOCH":"2026-03-09T22:38:39.337440","MEAN_MOTION":15.07991931,"ECCENTRICITY":0.0005117,"INCLINATION":97.4139,"RA_OF_ASC_NODE":234.2602,"ARG_OF_PERICENTER":83.1417,"MEAN_ANOMALY":277.0393,"EPHEMERIS_TYPE":0,"CLASSIFICATION_TYPE":"U","NORAD_CAT_ID":42836,"ELEMENT_SET_NO":999,"REV_AT_EPOCH":47205,"BSTAR":0.00047182615,"MEAN_MOTION_DOT":7.201e-5,"MEAN_MOTION_DDOT":0}]
